C/2014 H1 (Christensen),e,99.9378,34.6652,169.3175,139.4602,0.0005985,0.98460863,0.0000,04/15.1786/2014,2000,g 14.5,4.0
# From MPC105541
C/2014 HU195 (Valdes-TOTAS),e,5.8192,115.7723,145.1728,22.01412,0.0095423,0.76725976,10.1339,04/15.0/2018,2000,g 10.5,4.0
# From MPC109588
C/2014 J1 (Catalina),e,159.7114,41.9656,195.5244,8.749800,0.0380809,0.80428270,53.1234,04/15.0/2018,2000,g 17.0,4.0
# From MPC 93585
P/2014 L2 (NEOWISE),e,5.1872,149.3846,182.6400,6.307645,0.0622162,0.64671973,85.2086,04/15.0/2018,2000,g 12.0,4.0
# From MPC 90769
P/2014 L3 (Hill),e,6.2702,115.5064,178.5486,8.156202,0.0423128,0.77349286,58.6342,04/15.0/2018,2000,g 16.0,4.0
# From MPC 95731
C/2014 L5 (Lemmon),h,11/24.8324/2014,122.8126,35.7218,45.5412,1.000320,6.201113,2000,8.0,4.0
# From MPC103844
C/2014 M1 (PANSTARRS),e,160.2152,234.7503,336.9781,4620,0.0000031,0.99879069,0.0000,08/26.8842/2015,2000,g  9.0,4.0
# From MPC109141
C/2014 M2 (Christensen),e,32.4040,245.2611,40.7463,1553,0.0000161,0.99555081,0.0000,07/18.4281/2014,2000,g  6.0,4.0
# From MPC 90769
C/2014 M3 (Catalina),e,164.9039,80.3670,93.6129,126.6241,0.0006917,0.98079252,0.0000,06/20.6144/2014,2000,g 14.0,4.0
# From MPC 91614
P/2014 M4 (PANSTARRS),e,3.3341,263.3003,148.0637,5.883717,0.0690600,0.59369704,83.2641,04/15.0/2018,2000,g 15.0,4.0
# From MPC103844
P/2014 MG4 (Spacewatch-PANSTARRS),e,9.3659,311.7854,298.8627,5.011551,0.0878508,0.26011597,155.0584,04/15.0/2018,2000,g  9.5,4.0
# From MPC 93586
C/2014 N2 (PANSTARRS),e,132.9104,143.8753,238.0476,2463,0.0000081,0.99911009,0.0000,10/07.5389/2014,2000,g 14.5,4.0
# From MPC103844
C/2014 N3 (NEOWISE),e,61.6434,19.9244,353.4532,1863,0.0000123,0.99791845,0.0000,03/12.6069/2015,2000,g  7.0,4.0
# From MPC 98560
P/2014 O3 (PANSTARRS),e,7.8081,87.6457,204.3368,7.549938,0.0475104,0.38601964,69.2793,04/15.0/2018,2000,g 10.5,4.0
# From MPC109588
C/2014 OE4 (PANSTARRS),h,12/11.2390/2016,81.3475,240.3889,65.7835,1.000491,6.244916,2000,11.0,2.0
# From MPC100578
C/2014 Q1 (PANSTARRS),e,43.1050,8.7802,120.1089,1185,0.0000242,0.99973285,0.0000,07/06.2092/2015,2000,g  8.0,4.0
# From MPC103844
C/2014 Q2 (Lovejoy),e,80.2377,95.0229,12.4047,499.2955,0.0000883,0.99741192,0.0000,01/29.5834/2015,2000,g  2.7,10.0
# From MPC 90770
C/2014 QU2 (PANSTARRS),e,124.8132,332.9481,320.3021,224.4714,0.0002931,0.99011804,0.0000,07/09.4366/2014,2000,g 15.0,4.0
# From MPC102952
C/2014 Q3 (Borisov),e,89.8765,63.1385,47.3557,28.07804,0.0066245,0.94129217,8.2394,04/15.0/2018,2000,g -0.5,20.0
# From MPC 95732
C/2014 Q6 (PANSTARRS),e,49.7953,326.6054,2.4674,3376,0.0000050,0.99875042,0.0000,01/05.9985/2015,2000,g  9.5,4.0
# From MPC 95211
C/2014 R1 (Borisov),e,9.9180,104.0392,55.7488,182.1978,0.0004008,0.99259297,0.0000,11/18.8846/2014,2000,g  6.5,8.8
# From MPC109589
C/2014 R3 (PANSTARRS),e,90.8505,334.1003,113.4550,6944,0.0000017,0.99895209,0.0000,08/08.5535/2016,2000,g  6.5,4.0
# From MPC 92982
C/2014 R4 (Gibbs),e,42.3912,279.5492,180.7954,998.1262,0.0000313,0.99817659,0.0000,10/20.5575/2014,2000,g 13.0,4.0
# From MPC 91615
P/2014 R5 (Lemmon-PANSTARRS),e,1.0882,126.5434,213.7243,4.059505,0.1205021,0.41239004,168.5239,04/15.0/2018,2000,g 15.0,4.0
# From MPC 95732
C/2014 S1 (PANSTARRS),h,10/30.4898/2013,123.7867,352.6567,288.7756,1.003548,8.131314,2000,7.0,4.0
# From MPC104790
C/2014 S2 (PANSTARRS),e,64.4092,8.0555,87.4234,181.2739,0.0004038,0.98850783,0.0000,12/09.7296/2015,2000,g 10.0,4.0
# From MPC 90770
C/2014 S3 (PANSTARRS),e,169.3241,356.0726,293.0756,87.47252,0.0012047,0.97662793,0.0000,08/13.3584/2014,2000,g 17.0,4.0
# From MPC 91615
C/2014 TG64 (Catalina),e,22.2964,50.3090,294.5838,14.79545,0.0173186,0.78163118,24.5971,04/15.0/2018,2000,g 13.0,4.0
# From MPC 92274
P/2014 U2 (Kowalski),e,7.3012,354.7058,36.9489,2.910514,0.1984950,0.61506458,251.9896,04/15.0/2018,2000,g 19.5,4.0
# From MPC 91616
C/2014 U3 (Kowalski),e,152.9671,163.5940,51.3194,999.0460,0.0000312,0.99744170,0.0000,09/04.1143/2014,2000,g 14.5,4.0
# From MPC 91616
P/2014 U4 (PANSTARRS),e,6.4472,12.0384,347.9728,3.498299,0.1506325,0.46686967,204.0159,04/15.0/2018,2000,g 18.0,4.0
# From MPC 95211
P/2014 V1 (PANSTARRS),e,22.4772,166.2428,177.5812,5.487080,0.0766818,0.53268918,90.5388,04/15.0/2018,2000,g 14.0,4.0
# From MPC 93586
P/2014 W1 (PANSTARRS),e,8.8374,246.2663,152.4978,4.452712,0.1048980,0.39098461,142.2319,04/15.0/2018,2000,g 15.5,4.0
# From MPC106343
C/2014 W2 (PANSTARRS),e,82.0266,69.9620,85.0006,985.4562,0.0000319,0.99728976,0.0000,03/10.1610/2016,2000,g  7.5,4.0
# From MPC 98561
C/2014 W3 (PANSTARRS),h,02/27.2331/2014,90.1492,286.4221,158.9445,1.006021,6.067770,2000,8.5,4.0
# From MPC105542
P/2014 W4 (PANSTARRS),e,15.2738,33.3433,67.8760,6.603668,0.0580799,0.35354028,48.4619,04/15.0/2018,2000,g 11.0,4.0
# From MPC 95211
C/2014 W6 (Catalina),h,03/19.1398/2015,53.5479,338.1551,209.9397,1.001675,3.092221,2000,10.5,4.0
# From MPC 92982
C/2014 W7 (Christensen),e,98.2431,151.2729,33.2821,11.40726,0.0255818,0.86949205,30.7022,04/15.0/2018,2000,g 16.0,4.0
# From MPC 91616
C/2014 W8 (PANSTARRS),e,41.9431,224.8512,228.0805,181.0919,0.0004044,0.97225313,0.0000,09/10.1956/2015,2000,g 11.0,4.0
# From MPC 94672
C/2014 W9 (PANSTARRS),e,10.6293,21.2842,167.8842,11.20470,0.0262787,0.85794484,30.3354,04/15.0/2018,2000,g 16.0,4.0
# From MPC107047
C/2014 W11 (PANSTARRS),e,12.7101,295.8544,225.6454,9.723581,0.0325061,0.64747688,33.5951,04/15.0/2018,2000,g 10.0,4.0
# From MPC 93587
P/2014 W12 (Gibbs),e,8.5125,299.2734,36.9539,3.517728,0.1493863,0.52339416,186.3826,04/15.0/2018,2000,g 15.0,4.0
# From MPC 94281
P/2014 X1 (Elenin),e,26.0190,61.5123,34.1719,6.226635,0.0634343,0.70934805,75.7722,04/15.0/2018,2000,g 15.0,4.0
# From MPC 96866
C/2014 XB8 (PANSTARRS),e,149.7878,37.4969,351.3897,839.8679,0.0000405,0.99642040,0.0000,04/05.3711/2015,2000,g 13.5,4.0
# From MPC100579
C/2014 Y1 (PANSTARRS),h,01/17.5826/2016,14.9281,19.4712,182.3184,1.001821,2.244376,2000,9.5,4.0
# From MPC 95733
C/2015 A1 (PANSTARRS),e,80.3165,341.0779,244.9118,20.25081,0.0108153,0.90146512,12.2066,04/15.0/2018,2000,g 14.5,4.0
# From MPC 93587
C/2015 A2 (PANSTARRS),p,08/01.8353/2015,109.1696,208.8369,5.341055,258.5042,2000,10.5,4.0
# From MPC 92275
P/2015 A3 (PANSTARRS),e,172.5252,277.1396,249.2419,7.826834,0.0450116,0.85237478,51.6943,04/15.0/2018,2000,g 20.0,4.0
# From MPC 99270
P/2015 B1 (PANSTARRS),e,18.0224,353.2647,188.5712,9.535563,0.0334722,0.37295688,31.3670,04/15.0/2018,2000,g  8.5,4.0
# From MPC108592
C/2015 B2 (PANSTARRS),h,05/06.5798/2016,105.0687,341.9033,284.7562,1.000823,3.368814,2000,9.5,4.0
# From MPC109141
P/2015 B4 (Lemmon-PANSTARRS),e,1.7561,266.0614,227.6756,8.576227,0.0392428,0.56358126,45.4290,04/15.0/2018,2000,g 11.0,4.0
# From MPC101096
P/2015 C1 (TOTAS-Gibbs),e,13.8808,348.8463,178.4412,6.594518,0.0582009,0.56095006,62.8628,04/15.0/2018,2000,g 12.5,4.0
# From MPC 95211
C/2015 C2 (SWAN),e,94.4736,49.5855,334.0587,384.0770,0.0001309,0.99815316,0.0000,03/04.3310/2015,2000,g 14.0,4.0
# From MPC 98561
C/2015 D2 (PANSTARRS),e,31.8961,162.8014,292.6835,12.86020,0.0213714,0.56070591,35.4537,04/15.0/2018,2000,g  8.0,4.0
# From MPC109589
C/2015 D3 (PANSTARRS),h,05/02.7653/2016,128.5193,156.9907,2.9723,1.002809,8.150858,2000,5.5,4.0
# From MPC 94672
C/2015 D4 (Borisov),e,77.3255,305.6511,314.6779,78.19857,0.0014253,0.98900169,0.0000,10/28.2905/2014,2000,g 12.0,4.0
# From MPC109141
P/2015 D5 (Kowalski),e,20.4870,74.0695,40.0962,9.002469,0.0364890,0.49135793,53.5626,04/15.0/2018,2000,g  9.0,4.0
# From MPC 96866
P/2015 D6 (Lemmon-PANSTARRS),e,20.2302,46.2281,125.5074,7.173329,0.0513007,0.36397369,51.7244,04/15.0/2018,2000,g 10.5,4.0
# From MPC109589
C/2015 ER61 (PANSTARRS),e,6.3495,235.2203,68.1916,402.3948,0.0001221,0.99741058,0.0000,05/09.9633/2017,2000,g 11.0,2.0
# From MPEC 2018-BF5
C/2015 E61-B (PANSTARRS),e,6.3511,235.2554,68.2809,847.7976,0.0000399,0.99876894,0.0000,05/09.9410/2017,2000,g 13.5,2.0
# From MPC109142
P/2015 F1 (PANSTARRS),e,2.8039,40.4249,187.2997,3.524166,0.1489771,0.27853688,167.7767,04/15.0/2018,2000,g 12.5,4.0
# From MPC 95733
C/2015 F2 (Polonia),e,28.7200,262.4660,352.1202,38.76624,0.0040834,0.96878287,4.4177,04/15.0/2018,2000,g 16.5,4.0
# From MPC 96279
C/2015 F3 (SWAN),e,73.4296,31.6469,57.4784,190.1926,0.0003758,0.99561717,0.0000,03/08.5542/2015,2000,g 14.5,4.0
# From MPC102952
C/2015 F4 (Jacques),e,48.7533,285.9290,36.3155,114.3516,0.0008060,0.98564214,0.0000,08/10.9643/2015,2000,g 11.0,4.0
# From MPC 95212
C/2015 F5 (SWAN-Xingming),e,149.2933,287.7555,13.4242,15.52343,0.0161147,0.97763289,0.0000,03/27.8476/2015,2000,g 15.5,4.0
# From MPC102096
C/2015 GX (PANSTARRS),e,90.2789,235.5327,108.9111,16.18139,0.0151419,0.87830975,14.5689,04/15.0/2018,2000,g 14.0,4.0
# From MPC109142
C/2015 G2 (MASTER),h,05/23.8113/2015,147.6148,110.1464,257.5841,1.000441,0.781635,2000,11.0,4.0
# From MPC 95733
C/2015 H1 (Bressi),e,140.6023,325.8938,21.8772,31.98644,0.0054482,0.93962379,6.0708,04/15.0/2018,2000,g 13.5,4.0
# From MPC109142
C/2015 H2 (PANSTARRS),h,09/13.5624/2016,33.6992,350.6977,287.9313,1.004439,4.967817,2000,7.5,4.0
# From MPC 10028
P/2015 HG16 (PANSTARRS),e,18.8942,59.3380,47.5168,4.766700,0.0947060,0.34564474,131.6482,04/15.0/2018,2000,g 12.5,4.0
# From MPC100579
C/2015 J1 (PANSTARRS),h,06/29.3454/2014,94.9868,219.9916,315.5347,1.000678,6.027469,2000,8.5,4.0
# From MPC101096
C/2015 J2 (PANSTARRS),e,17.2793,56.7301,203.7797,275.2176,0.0002159,0.98429429,0.0000,09/09.4856/2015,2000,g 10.0,4.0
# From MPC 95733
P/2015 J3 (NEOWISE),e,8.1271,111.3695,129.3655,3.350680,0.1606958,0.55454900,182.8030,04/15.0/2018,2000,g 16.5,4.0
# From MPC101096
C/2015 K1 (MASTER),e,29.3723,5.1581,280.1777,186.6174,0.0003866,0.98631369,0.0000,10/14.0882/2014,2000,g  9.0,4.0
# From MPC 95733
C/2015 K2 (PANSTARRS),e,29.1208,223.6858,15.8532,285.6315,0.0002042,0.99490051,0.0000,06/09.0353/2015,2000,g 20.0,4.0
# From MPC 95733
C/2015 K4 (PANSTARRS),h,05/01.7835/2015,80.2738,250.7201,357.6111,1.000408,2.010513,2000,15.0,4.0
# From MPC 95213
